ATLAS CENTAUR 2         
1 00694U 63047A   25330.67021119  .00004357  00000+0  52115-3 0  9994
2 00694  30.3586  51.2033 0549616 252.6542 101.3239 14.11618609117057
THOR AGENA D R/B        
1 00733U 64002A   25331.16213306  .00000286  00000+0  11946-3 0  9990
2 00733  99.1221 333.9384 0032613 195.3991 164.6202 14.33945764223604
SL-3 R/B                
1 00877U 64053B   25330.96830196  .00000531  00000+0  12784-3 0  9998
2 00877  65.0770 272.3617 0072458 325.6440  33.9985 14.61250696251787
SL-8 R/B                
1 02802U 67045B   25331.01348047  .00000332  00000+0  99641-4 0  9995
2 02802  74.0095 179.8275 0065012 212.7047 147.0080 14.45517354 74184
SL-8 R/B                
1 03230U 68040B   25330.99248766  .00003368  00000+0  25603-3 0  9998
2 03230  74.0295 163.3948 0024388   9.0127 351.1493 15.02368209 74581
OAO 2                   
1 03597U 68110A   25330.71299108  .00000307  00000+0  88061-4 0  9996
2 03597  34.9919 120.1299 0004860  90.6626 269.4621 14.47228358  4178
ISIS 1                  
1 03669U 69009A   25330.50883512  .00000193  00000+0  14094-3 0  9996
2 03669  88.4494 166.5717 1707023 297.5048  46.2736 11.30344769336874
SERT 2                  
1 04327U 70009A   25330.89838130  .00000056  00000+0  13323-3 0  9990
2 04327  99.2626 274.6848 0005719  69.7939 337.0644 13.58714688765934
SL-3 R/B                
1 05118U 71028B   25331.15585398  .00028879  00000+0  45257-3 0  9990
2 05118  81.2383 177.8804 0019920 297.5156  62.4068 15.53322259972712
ASTEX 1                 
1 05560U 71089A   25330.97748080  .00000673  00000+0  17160-3 0  9990
2 05560  92.7129 118.5205 0017792  74.1822 286.1343 14.50613116847419
SL-8 R/B                
1 05730U 71119B   25331.07664446  .00010366  00000+0  54556-3 0  9998
2 05730  73.8889   7.1702 0560549 354.6016   4.9238 14.35268246640750
OAO 3 (COPERNICUS)      
1 06153U 72065A   25330.89380906  .00000400  00000+0  86661-4 0  9995
2 06153  35.0039 162.9332 0006216  34.0526 107.0867 14.59885058831169
