CCSDS_OMM_VERS = 2.0
CREATION_DATE  = 
ORIGINATOR     = 

OBJECT_NAME    = ATLAS CENTAUR 2
OBJECT_ID      = 1963-047A
CENTER_NAME    = EARTH
REF_FRAME      = TEME
TIME_SYSTEM    = UTC
MEAN_ELEMENT_THEORY = SGP/SGP4

EPOCH          = 2025-11-26T16:05:06.246816
MEAN_MOTION    = 14.11618609
ECCENTRICITY   = .05496161
INCLINATION    = 30.3586
RA_OF_ASC_NODE = 51.2033
ARG_OF_PERICENTER = 252.6542
MEAN_ANOMALY   = 101.3239

EPHEMERIS_TYPE = 0
CLASSIFICATION_TYPE = U
NORAD_CAT_ID   = 694
ELEMENT_SET_NO = 999
REV_AT_EPOCH   = 11705
BSTAR          = .52115319E-3
MEAN_MOTION_DOT = .4357E-4
MEAN_MOTION_DDOT = 0

CCSDS_OMM_VERS = 2.0
CREATION_DATE  = 
ORIGINATOR     = 

OBJECT_NAME    = THOR AGENA D R/B
OBJECT_ID      = 1964-002A
CENTER_NAME    = EARTH
REF_FRAME      = TEME
TIME_SYSTEM    = UTC
MEAN_ELEMENT_THEORY = SGP/SGP4

EPOCH          = 2025-11-27T03:53:28.296384
MEAN_MOTION    = 14.33945764
ECCENTRICITY   = .0032613
INCLINATION    = 99.1221
RA_OF_ASC_NODE = 333.9384
ARG_OF_PERICENTER = 195.3991
MEAN_ANOMALY   = 164.6202

EPHEMERIS_TYPE = 0
CLASSIFICATION_TYPE = U
NORAD_CAT_ID   = 733
ELEMENT_SET_NO = 999
REV_AT_EPOCH   = 22360
BSTAR          = .11946E-3
MEAN_MOTION_DOT = .286E-5
MEAN_MOTION_DDOT = 0

CCSDS_OMM_VERS = 2.0
CREATION_DATE  = 
ORIGINATOR     = 

OBJECT_NAME    = SL-3 R/B
OBJECT_ID      = 1964-053B
CENTER_NAME    = EARTH
REF_FRAME      = TEME
TIME_SYSTEM    = UTC
MEAN_ELEMENT_THEORY = SGP/SGP4

EPOCH          = 2025-11-26T23:14:21.289344
MEAN_MOTION    = 14.61250696
ECCENTRICITY   = .0072458
INCLINATION    = 65.0770
RA_OF_ASC_NODE = 272.3617
ARG_OF_PERICENTER = 325.6440
MEAN_ANOMALY   = 33.9985

EPHEMERIS_TYPE = 0
CLASSIFICATION_TYPE = U
NORAD_CAT_ID   = 877
ELEMENT_SET_NO = 999
REV_AT_EPOCH   = 25178
BSTAR          = .12784E-3
MEAN_MOTION_DOT = .531E-5
MEAN_MOTION_DDOT = 0

CCSDS_OMM_VERS = 2.0
CREATION_DATE  = 
ORIGINATOR     = 

OBJECT_NAME    = SL-8 R/B
OBJECT_ID      = 1967-045B
CENTER_NAME    = EARTH
REF_FRAME      = TEME
TIME_SYSTEM    = UTC
MEAN_ELEMENT_THEORY = SGP/SGP4

EPOCH          = 2025-11-27T00:19:24.712608
MEAN_MOTION    = 14.45517354
ECCENTRICITY   = .0065012
INCLINATION    = 74.0095
RA_OF_ASC_NODE = 179.8275
ARG_OF_PERICENTER = 212.7047
MEAN_ANOMALY   = 147.0080

EPHEMERIS_TYPE = 0
CLASSIFICATION_TYPE = U
NORAD_CAT_ID   = 2802
ELEMENT_SET_NO = 999
REV_AT_EPOCH   = 7418
BSTAR          = .99641E-4
MEAN_MOTION_DOT = .332E-5
MEAN_MOTION_DDOT = 0

CCSDS_OMM_VERS = 2.0
CREATION_DATE  = 
ORIGINATOR     = 

OBJECT_NAME    = SL-8 R/B
OBJECT_ID      = 1968-040B
CENTER_NAME    = EARTH
REF_FRAME      = TEME
TIME_SYSTEM    = UTC
MEAN_ELEMENT_THEORY = SGP/SGP4

EPOCH          = 2025-11-26T23:49:10.933824
MEAN_MOTION    = 15.02368209
ECCENTRICITY   = .0024388
INCLINATION    = 74.0295
RA_OF_ASC_NODE = 163.3948
ARG_OF_PERICENTER = 9.0127
MEAN_ANOMALY   = 351.1493

EPHEMERIS_TYPE = 0
CLASSIFICATION_TYPE = U
NORAD_CAT_ID   = 3230
ELEMENT_SET_NO = 999
REV_AT_EPOCH   = 7458
BSTAR          = .25603E-3
MEAN_MOTION_DOT = .3368E-4
MEAN_MOTION_DDOT = 0

CCSDS_OMM_VERS = 2.0
CREATION_DATE  = 
ORIGINATOR     = 

OBJECT_NAME    = OAO 2
OBJECT_ID      = 1968-110A
CENTER_NAME    = EARTH
REF_FRAME      = TEME
TIME_SYSTEM    = UTC
MEAN_ELEMENT_THEORY = SGP/SGP4

EPOCH          = 2025-11-26T17:06:42.429312
MEAN_MOTION    = 14.47228358
ECCENTRICITY   = .00048605
INCLINATION    = 34.9919
RA_OF_ASC_NODE = 120.1299
ARG_OF_PERICENTER = 90.6626
MEAN_ANOMALY   = 269.4621

EPHEMERIS_TYPE = 0
CLASSIFICATION_TYPE = U
NORAD_CAT_ID   = 3597
ELEMENT_SET_NO = 999
REV_AT_EPOCH   = 417
BSTAR          = .88061288E-4
MEAN_MOTION_DOT = .307E-5
MEAN_MOTION_DDOT = 0

CCSDS_OMM_VERS = 2.0
CREATION_DATE  = 
ORIGINATOR     = 

OBJECT_NAME    = ISIS 1
OBJECT_ID      = 1969-009A
CENTER_NAME    = EARTH
REF_FRAME      = TEME
TIME_SYSTEM    = UTC
MEAN_ELEMENT_THEORY = SGP/SGP4

EPOCH          = 2025-11-26T12:12:43.354368
MEAN_MOTION    = 11.30344769
ECCENTRICITY   = .1707023
INCLINATION    = 88.4494
RA_OF_ASC_NODE = 166.5717
ARG_OF_PERICENTER = 297.5048
MEAN_ANOMALY   = 46.2736

EPHEMERIS_TYPE = 0
CLASSIFICATION_TYPE = U
NORAD_CAT_ID   = 3669
ELEMENT_SET_NO = 999
REV_AT_EPOCH   = 33687
BSTAR          = .14094187E-3
MEAN_MOTION_DOT = .193E-5
MEAN_MOTION_DDOT = 0

CCSDS_OMM_VERS = 2.0
CREATION_DATE  = 
ORIGINATOR     = 

OBJECT_NAME    = SERT 2
OBJECT_ID      = 1970-009A
CENTER_NAME    = EARTH
REF_FRAME      = TEME
TIME_SYSTEM    = UTC
MEAN_ELEMENT_THEORY = SGP/SGP4

EPOCH          = 2025-11-26T21:33:40.144320
MEAN_MOTION    = 13.58714688
ECCENTRICITY   = .0005719
INCLINATION    = 99.2626
RA_OF_ASC_NODE = 274.6848
ARG_OF_PERICENTER = 69.7939
MEAN_ANOMALY   = 337.0644

EPHEMERIS_TYPE = 0
CLASSIFICATION_TYPE = U
NORAD_CAT_ID   = 4327
ELEMENT_SET_NO = 999
REV_AT_EPOCH   = 76593
BSTAR          = .13323E-3
MEAN_MOTION_DOT = .56E-6
MEAN_MOTION_DDOT = 0

CCSDS_OMM_VERS = 2.0
CREATION_DATE  = 
ORIGINATOR     = 

OBJECT_NAME    = SL-3 R/B
OBJECT_ID      = 1971-028B
CENTER_NAME    = EARTH
REF_FRAME      = TEME
TIME_SYSTEM    = UTC
MEAN_ELEMENT_THEORY = SGP/SGP4

EPOCH          = 2025-11-27T03:44:25.783872
MEAN_MOTION    = 15.53322259
ECCENTRICITY   = .001992
INCLINATION    = 81.2383
RA_OF_ASC_NODE = 177.8804
ARG_OF_PERICENTER = 297.5156
MEAN_ANOMALY   = 62.4068

EPHEMERIS_TYPE = 0
CLASSIFICATION_TYPE = U
NORAD_CAT_ID   = 5118
ELEMENT_SET_NO = 999
REV_AT_EPOCH   = 97271
BSTAR          = .45257E-3
MEAN_MOTION_DOT = .28879E-3
MEAN_MOTION_DDOT = 0

CCSDS_OMM_VERS = 2.0
CREATION_DATE  = 
ORIGINATOR     = 

OBJECT_NAME    = ASTEX 1
OBJECT_ID      = 1971-089A
CENTER_NAME    = EARTH
REF_FRAME      = TEME
TIME_SYSTEM    = UTC
MEAN_ELEMENT_THEORY = SGP/SGP4

EPOCH          = 2025-11-26T23:27:34.341120
MEAN_MOTION    = 14.50613116
ECCENTRICITY   = .0017792
INCLINATION    = 92.7129
RA_OF_ASC_NODE = 118.5205
ARG_OF_PERICENTER = 74.1822
MEAN_ANOMALY   = 286.1343

EPHEMERIS_TYPE = 0
CLASSIFICATION_TYPE = U
NORAD_CAT_ID   = 5560
ELEMENT_SET_NO = 999
REV_AT_EPOCH   = 84741
BSTAR          = .1716E-3
MEAN_MOTION_DOT = .673E-5
MEAN_MOTION_DDOT = 0

CCSDS_OMM_VERS = 2.0
CREATION_DATE  = 
ORIGINATOR     = 

OBJECT_NAME    = SL-8 R/B
OBJECT_ID      = 1971-119B
CENTER_NAME    = EARTH
REF_FRAME      = TEME
TIME_SYSTEM    = UTC
MEAN_ELEMENT_THEORY = SGP/SGP4

EPOCH          = 2025-11-27T01:50:22.081344
MEAN_MOTION    = 14.35268246
ECCENTRICITY   = .0560549
INCLINATION    = 73.8889
RA_OF_ASC_NODE = 7.1702
ARG_OF_PERICENTER = 354.6016
MEAN_ANOMALY   = 4.9238

EPHEMERIS_TYPE = 0
CLASSIFICATION_TYPE = U
NORAD_CAT_ID   = 5730
ELEMENT_SET_NO = 999
REV_AT_EPOCH   = 64075
BSTAR          = .54556E-3
MEAN_MOTION_DOT = .10366E-3
MEAN_MOTION_DDOT = 0

CCSDS_OMM_VERS = 2.0
CREATION_DATE  = 
ORIGINATOR     = 

OBJECT_NAME    = OAO 3 (COPERNICUS)
OBJECT_ID      = 1972-065A
CENTER_NAME    = EARTH
REF_FRAME      = TEME
TIME_SYSTEM    = UTC
MEAN_ELEMENT_THEORY = SGP/SGP4

EPOCH          = 2025-11-26T21:27:05.102784
MEAN_MOTION    = 14.59885058
ECCENTRICITY   = .0006216
INCLINATION    = 35.0039
RA_OF_ASC_NODE = 162.9332
ARG_OF_PERICENTER = 34.0526
MEAN_ANOMALY   = 107.0867

EPHEMERIS_TYPE = 0
CLASSIFICATION_TYPE = U
NORAD_CAT_ID   = 6153
ELEMENT_SET_NO = 999
REV_AT_EPOCH   = 83116
BSTAR          = .86661E-4
MEAN_MOTION_DOT = .4E-5
MEAN_MOTION_DDOT = 0

